[{"OBJECT_NAME":"ICEYE-X57","OBJECT_ID":"2025-135BC","EPOCH":"2026-03-09T22:18:00.647424","MEAN_MOTION":15.00870088,"ECCENTRICITY":0.00021914,"INCLINATION":97.7623,"RA_OF_ASC_NODE":185.2979,"ARG_OF_PERICENTER":76.2741,"MEAN_ANOMALY":283.8727,"EPHEMERIS_TYPE":0,"CLASSIFICATION_TYPE":"U","NORAD_CAT_ID":64578,"ELEMENT_SET_NO":999,"REV_AT_EPOCH":3913,"BSTAR":0.00060837081,"MEAN_MOTION_DOT":7.683e-5,"MEAN_MOTION_DDOT":0},{"OBJECT_NAME":"OKEAN-3","OBJECT_ID":"1991-039A","EPOCH":"2026-03-09T19:29:17.530944","MEAN_MOTION":15.0480588,"ECCENTRICITY":0.00139411,"INCLINATION":82.519,"RA_OF_ASC_NODE":336.7249,"ARG_OF_PERICENTER":337.9296,"MEAN_ANOMALY":22.1329,"EPHEMERIS_TYPE":0,"CLASSIFICATION_TYPE":"U","NORAD_CAT_ID":21397,"ELEMENT_SET_NO":999,"REV_AT_EPOCH":86505,"BSTAR":0.00031884915,"MEAN_MOTION_DOT":4.536e-5,"MEAN_MOTION_DDOT":0}]
